{
  "norad_id": 50494,
  "name": "ONEWEB-0419",
  "history": [
    {
      "epoch": "2026-03-28T18:39:45.868608Z",
      "apogee_km": 1191.0777246886064,
      "perigee_km": 1188.392643637665,
      "latitude_deg": 4.610291048010556e-05,
      "longitude_deg": -114.70160496589897,
      "height_km": 1192.1477790263896,
      "semi_major_axis_km": 7567.872184163135,
      "eccentricity": 0.0001774,
      "inclination_deg": 87.9245,
      "raan_deg": 351.4327,
      "arg_perigee_deg": 68.8365,
      "mean_anomaly_deg": 291.2957,
      "mean_motion_rev_day": 13.18688076
    },
    {
      "epoch": "2026-03-29T03:46:04.429344Z",
      "apogee_km": 1191.0678484701548,
      "perigee_km": 1188.3963906709469,
      "latitude_deg": 1.4819261122210214e-05,
      "longitude_deg": 108.27192203937038,
      "height_km": 1192.15183201061,
      "semi_major_axis_km": 7567.8691195705505,
      "eccentricity": 0.0001765,
      "inclination_deg": 87.9245,
      "raan_deg": 351.3575,
      "arg_perigee_deg": 69.0498,
      "mean_anomaly_deg": 291.0823,
      "mean_motion_rev_day": 13.18688877
    }
  ]
}